[{"OBJECT_NAME":"STARLINK-3107","OBJECT_ID":"2021-082AT","EPOCH":"2026-03-09T21:59:27.140640","MEAN_MOTION":15.10504087,"ECCENTRICITY":0.00073375,"INCLINATION":69.9932,"RA_OF_ASC_NODE":287.3824,"ARG_OF_PERICENTER":250.2407,"MEAN_ANOMALY":109.7967,"EPHEMERIS_TYPE":0,"CLASSIFICATION_TYPE":"U","NORAD_CAT_ID":49171,"ELEMENT_SET_NO":999,"REV_AT_EPOCH":24733,"BSTAR":0.001517345,"MEAN_MOTION_DOT":0.00025048,"MEAN_MOTION_DDOT":0},{"OBJECT_NAME":"STARLINK-3993","OBJECT_ID":"2022-053AN","EPOCH":"2026-03-09T11:55:47.800128","MEAN_MOTION":15.08831474,"ECCENTRICITY":0.00012519,"INCLINATION":53.2166,"RA_OF_ASC_NODE":144.7144,"ARG_OF_PERICENTER":93.3879,"MEAN_ANOMALY":266.7257,"EPHEMERIS_TYPE":0,"CLASSIFICATION_TYPE":"U","NORAD_CAT_ID":52692,"ELEMENT_SET_NO":999,"REV_AT_EPOCH":21112,"BSTAR":-7.0282457e-5,"MEAN_MOTION_DOT":-1.406e-5,"MEAN_MOTION_DDOT":0}]
